{
  "58327": {
    "name": "PlanetScope-58327",
    "line1": "1 58327U 23174BZ  26068.95605259  .00026281  00000-0  57135-3 0  9998",
    "line2": "2 58327  97.3850 154.7858 0007719 155.8923 204.2688 15.44282003130221",
    "meta": {
      "display_name": "PlanetScope-58327",
      "type": "optical",
      "swath_km": 8.0,
      "resolution_m": 4.0,
      "off_nadir_deg": 0,
      "altitude_km": 525.0,
      "priority": 10
    }
  },
  "60511": {
    "name": "PlanetScope-60511",
    "line1": "1 60511U 24149AV  26068.75916456  .00044540  00000-0  10006-2 0  9994",
    "line2": "2 60511  97.3841 153.9677 0002852 272.6636  87.4286 15.43222987 87120",
    "meta": {
      "display_name": "PlanetScope-60511",
      "type": "optical",
      "swath_km": 8.0,
      "resolution_m": 4.0,
      "off_nadir_deg": 0,
      "altitude_km": 525.0,
      "priority": 10
    }
  }
}