[{"OBJECT_NAME":"FLOCK 4Q-4","OBJECT_ID":"2023-174BZ","EPOCH":"2026-03-09T22:56:42.943776","MEAN_MOTION":15.44282003,"ECCENTRICITY":0.0007719,"INCLINATION":97.385,"RA_OF_ASC_NODE":154.7858,"ARG_OF_PERICENTER":155.8923,"MEAN_ANOMALY":204.2688,"EPHEMERIS_TYPE":0,"CLASSIFICATION_TYPE":"U","NORAD_CAT_ID":58327,"ELEMENT_SET_NO":999,"REV_AT_EPOCH":13022,"BSTAR":0.00057134662,"MEAN_MOTION_DOT":0.00026281,"MEAN_MOTION_DDOT":0},{"OBJECT_NAME":"FLOCK 4BE-2","OBJECT_ID":"2024-149AV","EPOCH":"2026-03-09T18:13:11.817984","MEAN_MOTION":15.43222987,"ECCENTRICITY":0.00028517,"INCLINATION":97.3841,"RA_OF_ASC_NODE":153.9677,"ARG_OF_PERICENTER":272.6636,"MEAN_ANOMALY":87.4286,"EPHEMERIS_TYPE":0,"CLASSIFICATION_TYPE":"U","NORAD_CAT_ID":60511,"ELEMENT_SET_NO":999,"REV_AT_EPOCH":8712,"BSTAR":0.0010005799,"MEAN_MOTION_DOT":0.0004454,"MEAN_MOTION_DDOT":0}]
